NORAD_CAT_ID,OBJECT_NAME,OBJECT_TYPE,EPOCH,MEAN_MOTION,ECCENTRICITY,INCLINATION,RA_OF_ASC_NODE,ARG_OF_PERICENTER,MEAN_ANOMALY,BSTAR,MEAN_MOTION_DOT,MEAN_MOTION_DDOT,TLE_LINE0,TLE_LINE1,TLE_LINE2,SEMIMAJOR_AXIS,PERIOD,APOGEE,PERIGEE,DECAYED
54193.0,STARLINK-5263,PAYLOAD,2023-09-24 20:11:14,15.08860345,0.0001002,53.218,60.2687,83.1686,276.942,0.00064853,0.00010054,0.0,0 STARLINK-5263,1 54193U 22141AN  23267.84113642  .00010054  00000-0  64853-3 0  9990,2 54193  53.2180  60.2687 0001002  83.1686 276.9420 15.08860345 50608,6917.818,95.436,540.376,538.99,0.0
54193.0,STARLINK-5263,PAYLOAD,2023-09-25 08:54:19,15.08854248,0.0001085,53.2168,57.8933,72.8171,287.294,0.00046781,7.168e-05,0.0,0 STARLINK-5263,1 54193U 22141AN  23268.37105823  .00007168  00000-0  46781-3 0  9993,2 54193  53.2168  57.8933 0001085  72.8171 287.2940 15.08854248 50916,6917.837,95.437,540.452,538.951,0.0
54193.0,STARLINK-5263,PAYLOAD,2023-09-25 13:40:28,15.0884801,9.25e-05,53.218,56.9993,81.0381,279.0716,0.00027208,4.046e-05,0.0,0 STARLINK-5263,1 54193U 22141AN  23268.56977967  .00004046  00000-0  27208-3 0  9995,2 54193  53.2180  56.9993 0000925  81.0381 279.0716 15.08848010 50711,6917.856,95.437,540.361,539.081,0.0
54193.0,STARLINK-5263,PAYLOAD,2023-09-25 16:51:15,15.088558,9.32e-05,53.2178,56.4039,86.38,273.7299,0.00062427,9.666e-05,0.0,0 STARLINK-5263,1 54193U 22141AN  23268.70225744  .00009666  00000-0  62427-3 0  9995,2 54193  53.2178  56.4039 0000932  86.3800 273.7299 15.08855800 50730,6917.832,95.437,540.342,539.052,0.0
54193.0,STARLINK-5263,PAYLOAD,2023-09-26 13:31:16,15.08844897,0.000107,53.2179,52.5375,100.7127,259.3986,0.0010887,0.00017083,0.0,0 STARLINK-5263,1 54193U 22141AN  23269.56338416  .00017083  00000-0  10887-2 0  9995,2 54193  53.2179  52.5375 0001070 100.7127 259.3986 15.08844897 50869,6917.865,95.437,540.471,538.99,0.0
54193.0,STARLINK-5263,PAYLOAD,2023-09-26 16:42:02,15.08840661,8.81e-05,53.2169,51.9442,82.8719,277.2374,0.00087156,0.0001361,0.0,0 STARLINK-5263,1 54193U 22141AN  23269.69586525  .00013610  00000-0  87156-3 0  9991,2 54193  53.2169  51.9442 0000881  82.8719 277.2374 15.08840661 51116,6917.878,95.438,540.353,539.134,0.0
54193.0,STARLINK-5263,PAYLOAD,2023-09-27 10:11:17,15.08836928,0.0001002,53.2178,48.6727,86.7131,273.3976,0.00018727,2.694e-05,0.0,0 STARLINK-5263,1 54193U 22141AN  23270.42450755  .00002694  00000-0  18727-3 0  9997,2 54193  53.2178  48.6727 0001002  86.7131 273.3976 15.08836928 51220,6917.89,95.438,540.448,539.062,0.0
54193.0,STARLINK-5263,PAYLOAD,2023-09-27 13:22:03,15.08838055,0.0001085,53.2183,48.0779,83.5035,276.6081,0.00021865,3.194e-05,0.0,0 STARLINK-5263,1 54193U 22141AN  23270.55698782  .00003194  00000-0  21865-3 0  9998,2 54193  53.2183  48.0779 0001085  83.5035 276.6081 15.08838055 51019,6917.886,95.438,540.502,539.001,0.0
54193.0,STARLINK-5263,PAYLOAD,2023-09-28 14:48:13,15.08845083,0.0001173,53.2184,43.3207,84.267,275.8456,0.0002132,3.107e-05,0.0,0 STARLINK-5263,1 54193U 22141AN  23271.61682597  .00003107  00000-0  21320-3 0  9993,2 54193  53.2184  43.3207 0001173  84.2670 275.8456 15.08845083 51178,6917.865,95.437,540.541,538.918,0.0
54193.0,STARLINK-5263,PAYLOAD,2023-09-28 16:23:36,15.08847255,0.0001143,53.2179,43.0229,79.8979,280.2142,0.00025212,3.728e-05,0.0,0 STARLINK-5263,1 54193U 22141AN  23271.68306514  .00003728  00000-0  25212-3 0  9995,2 54193  53.2179  43.0229 0001143  79.8979 280.2142 15.08847255 51414,6917.858,95.437,540.514,538.933,0.0
54193.0,STARLINK-5263,PAYLOAD,2023-09-29 09:52:51,15.0884285,0.0001149,53.2186,39.7525,82.4742,277.638,0.00012183,1.652e-05,0.0,0 STARLINK-5263,1 54193U 22141AN  23272.41170674  .00001652  00000-0  12183-3 0  9990,2 54193  53.2186  39.7525 0001149  82.4742 277.6380 15.08842850 51529,6917.872,95.437,540.532,538.942,0.0
54193.0,STARLINK-5263,PAYLOAD,2023-09-29 14:39:00,15.08846491,0.0001271,53.2184,38.8605,77.967,282.1465,0.00017342,2.474e-05,0.0,0 STARLINK-5263,1 54193U 22141AN  23272.61042535  .00002474  00000-0  17342-3 0  9991,2 54193  53.2184  38.8605 0001271  77.9670 282.1465 15.08846491 51329,6917.861,95.437,540.605,538.846,0.0
54193.0,STARLINK-5263,PAYLOAD,2023-09-30 01:46:42,15.08847693,0.0001311,53.2183,36.7794,67.6684,292.4447,0.0001733,2.472e-05,0.0,0 STARLINK-5263,1 54193U 22141AN  23273.07410348  .00002472  00000-0  17330-3 0  9998,2 54193  53.2183  36.7794 0001311  67.6684 292.4447 15.08847693 51396,6917.857,95.437,540.629,538.815,0.0
54193.0,STARLINK-5263,PAYLOAD,2023-09-30 14:29:47,15.08843007,0.0001274,53.2178,34.3999,77.2891,282.8243,8.4184e-05,1.052e-05,0.0,0 STARLINK-5263,1 54193U 22141AN  23273.60402526  .00001052  00000-0  84184-4 0  9991,2 54193  53.2178  34.3999 0001274  77.2891 282.8243 15.08843007 51703,6917.871,95.437,540.618,538.855,0.0
54193.0,STARLINK-5263,PAYLOAD,2023-10-01 14:20:34,15.08854549,0.0001474,53.2188,29.9385,95.9442,264.1718,0.0002794,4.163e-05,0.0,0 STARLINK-5263,1 54193U 22141AN  23274.59761844  .00004163  00000-0  27940-3 0  9993,2 54193  53.2188  29.9385 0001474  95.9442 264.1718 15.08854549 51628,6917.836,95.437,540.721,538.681,0.0
54193.0,STARLINK-5263,PAYLOAD,2023-10-02 11:00:35,15.08832997,0.0001247,53.2183,26.0735,88.5593,271.5542,-6.2233e-05,-1.278e-05,0.0,0 STARLINK-5263,1 54193U 22141AN  23275.45874857 -.00001278  00000-0 -62233-4 0  9999,2 54193  53.2183  26.0735 0001247  88.5593 271.5542 15.08832997 51982,6917.902,95.438,540.629,538.904,0.0
54193.0,STARLINK-5263,PAYLOAD,2023-10-02 18:57:31,15.08842218,0.0001509,53.2195,24.5852,101.5848,258.5314,6.4093e-05,7.32e-06,0.0,0 STARLINK-5263,1 54193U 22141AN  23275.78994557  .00000732  00000-0  64093-4 0  9993,2 54193  53.2195  24.5852 0001509 101.5848 258.5314 15.08842218 51808,6917.874,95.437,540.783,538.695,0.0
54193.0,STARLINK-5263,PAYLOAD,2023-10-03 12:26:44,15.08866553,0.0001762,53.2185,21.3157,129.9234,230.1914,0.00044604,6.823e-05,0.0,0 STARLINK-5263,1 54193U 22141AN  23276.51857308  .00006823  00000-0  44604-3 0  9999,2 54193  53.2185  21.3157 0001762 129.9234 230.1914 15.08866553 52142,6917.799,95.436,540.883,538.445,0.0
54193.0,STARLINK-5263,PAYLOAD,2023-10-03 14:02:08,15.08853169,0.0001271,53.2187,21.0184,96.245,263.8687,0.00022971,3.371e-05,0.0,0 STARLINK-5263,1 54193U 22141AN  23276.58482140  .00003371  00000-0  22971-3 0  9992,2 54193  53.2187  21.0184 0001271  96.2450 263.8687 15.08853169 51926,6917.84,95.437,540.584,538.826,0.0
54193.0,STARLINK-5263,PAYLOAD,2023-10-03 18:48:17,15.08860282,0.0001275,53.2183,20.1254,93.6552,266.4586,0.0003039,4.555e-05,0.0,0 STARLINK-5263,1 54193U 22141AN  23276.78353569  .00004555  00000-0  30390-3 0  9995,2 54193  53.2183  20.1254 0001275  93.6552 266.4586 15.08860282 51952,6917.818,95.436,540.565,538.801,0.0
54193.0,STARLINK-5263,PAYLOAD,2023-10-04 10:42:10,15.08832731,0.0001528,53.2187,17.1499,103.5758,256.5404,4.9815e-05,5.05e-06,0.0,0 STARLINK-5263,1 54193U 22141AN  23277.44595340  .00000505  00000-0  49815-4 0  9998,2 54193  53.2187  17.1499 0001528 103.5758 256.5404 15.08832731 52287,6917.903,95.438,540.825,538.711,0.0
54193.0,STARLINK-5263,PAYLOAD,2023-10-04 13:52:56,15.08837193,0.0001365,53.2187,16.563,107.7692,252.345,0.00019004,2.738e-05,0.0,0 STARLINK-5263,1 54193U 22141AN  23277.57843123  .00002738  00000-0  19004-3 0  9993,2 54193  53.2187  16.5630 0001365 107.7692 252.3450 15.08837193 52078,6917.889,95.438,540.698,538.81,0.0
54193.0,STARLINK-5263,PAYLOAD,2023-10-04 17:03:42,15.08850022,0.00012,53.218,15.9623,92.683,267.43,0.00030642,4.593e-05,0.0,0 STARLINK-5263,1 54193U 22141AN  23277.71090501  .00004593  00000-0  30642-3 0  9995,2 54193  53.2180  15.9623 0001200  92.6830 267.4300 15.08850022 52325,6917.85,95.437,540.545,538.885,0.0
54193.0,STARLINK-5263,PAYLOAD,2023-10-05 07:22:10,15.08838886,0.0001782,53.2181,13.2871,103.3892,256.7298,9.6995e-05,1.256e-05,0.0,0 STARLINK-5263,1 54193U 22141AN  23278.30707114  .00001256  00000-0  96995-4 0  9993,2 54193  53.2181  13.2871 0001782 103.3892 256.7298 15.08838886 52416,6917.884,95.438,540.982,538.516,0.0
54193.0,STARLINK-5263,PAYLOAD,2023-10-05 13:43:43,15.08847867,0.0001385,53.2184,12.0982,93.1884,266.9267,0.0001936,2.795e-05,0.0,0 STARLINK-5263,1 54193U 22141AN  23278.57202664  .00002795  00000-0  19360-3 0  9991,2 54193  53.2184  12.0982 0001385  93.1884 266.9267 15.08847867 52222,6917.856,95.437,540.679,538.763,0.0
54193.0,STARLINK-5263,PAYLOAD,2023-10-06 10:23:44,15.08834996,0.0001487,53.2179,8.2341,86.3169,273.7993,7.6577e-06,-1.66e-06,0.0,0 STARLINK-5263,1 54193U 22141AN  23279.43315600 -.00000166  00000-0  76577-5 0  9998,2 54193  53.2179   8.2341 0001487  86.3169 273.7993 15.08834996 52585,6917.896,95.438,540.789,538.732,0.0
54193.0,STARLINK-5263,PAYLOAD,2023-10-06 13:34:30,15.08842326,0.0001488,53.2175,7.6374,86.4004,273.7159,0.00014754,2.061e-05,0.0,0 STARLINK-5263,1 54193U 22141AN  23279.56563330  .00002061  00000-0  14754-3 0  9999,2 54193  53.2175   7.6374 0001488  86.4004 273.7159 15.08842326 52377,6917.873,95.437,540.768,538.709,0.0
54193.0,STARLINK-5263,PAYLOAD,2023-10-07 11:49:54,15.08846502,0.0001479,53.2165,3.4753,79.7082,280.4077,0.00037527,5.691e-05,0.0,0 STARLINK-5263,1 54193U 22141AN  23280.49299551  .00005691  00000-0  37527-3 0  9999,2 54193  53.2165   3.4753 0001479  79.7082 280.4077 15.08846502 52512,6917.861,95.437,540.749,538.702,0.0
54193.0,STARLINK-5263,PAYLOAD,2023-10-07 15:00:40,15.08851543,0.0001723,53.2166,2.8815,73.7318,286.3863,0.00046198,7.074e-05,0.0,0 STARLINK-5263,1 54193U 22141AN  23280.62547425  .00007074  00000-0  46198-3 0  9991,2 54193  53.2166   2.8815 0001723  73.7318 286.3863 15.08851543 52769,6917.845,95.437,540.902,538.518,0.0
54193.0,STARLINK-5263,PAYLOAD,2023-10-07 22:57:37,15.08841023,0.0001758,53.2177,1.3948,80.1444,279.9746,0.00018648,2.681e-05,0.0,0 STARLINK-5263,1 54193U 22141AN  23280.95667850  .00002681  00000-0  18648-3 0  9990,2 54193  53.2177   1.3948 0001758  80.1444 279.9746 15.08841023 52818,6917.877,95.437,540.958,538.526,0.0
